FENGYUN 1C DEB          
1 31262U 99025BMU 17345.05876521  .00000696  00000-0  45662-3 0  9990
2 31262  99.1933   5.3620 0064783 342.0838  78.6009 14.04500729545626
